STARLINK-35708          
1 66277U 25247N   25334.09197940  .00054999  00000+0  13746-2 0  9992
2 66277  53.1591 296.9838 0001232 104.0124 256.1018 15.39629933  5793
STARLINK-35713          
1 66278U 25247P   25334.08733646  .00060357  00000+0  15064-2 0  9991
2 66278  53.1595 296.9537 0001284 100.6627 259.4522 15.39632439  5792
STARLINK-35724          
1 66279U 25247Q   25334.08699884  .00062082  00000+0  15485-2 0  9991
2 66279  53.1598 296.9522 0001214 110.1532 249.9603 15.39637695  5742
STARLINK-35726          
1 66280U 25247R   25334.09164235  .00062202  00000+0  15516-2 0  9990
2 66280  53.1592 296.9816 0001321 107.7436 252.3713 15.39634964  5744
STARLINK-35727          
1 66281U 25247S   25334.08269390  .00052827  00000+0  13210-2 0  9999
2 66281  53.1593 296.9246 0001704  98.1441 261.9758 15.39630781  5745
STARLINK-35776          
1 66282U 25247T   25334.08235802  .00058017  00000+0  14488-2 0  9996
2 66282  53.1593 296.9224 0001653  97.2547 262.8646 15.39632501  5740
STARLINK-35774          
1 66283U 25247U   25334.16671295  .00023641  00000+0  59985-3 0  9993
2 66283  53.1589 296.4781 0001154 106.5185  25.3396 15.39585102  5598
STARLINK-35830          
1 66284U 25247V   25334.16671295  .00021493  00000+0  54646-3 0  9996
2 66284  53.1589 296.4739 0001214 109.2616  24.4713 15.39582770  5599
STARLINK-35819          
1 66285U 25247W   25334.16671295  .00032283  00000+0  81440-3 0  9998
2 66285  53.1586 296.4262 0001316  86.6538  70.9437 15.39590977  5544
STARLINK-35783          
1 66286U 25247X   25334.16671295  .00021845  00000+0  55512-3 0  9992
2 66286  53.1585 296.4216 0001296  76.8109  82.6664 15.39588372  5543
STARLINK-34884          
1 66287U 25247Y   25334.16671295  .00026971  00000+0  68264-3 0  9996
2 66287  53.1579 296.3742 0001228  80.6187 102.7361 15.39585301  5866
STARLINK-34896          
1 66288U 25247Z   25334.16671295  .00024580  00000+0  62327-3 0  9995
2 66288  53.1579 296.3704 0001264  77.4308 107.8136 15.39582438  5868
