CCSDS_OMM_VERS = 2.0
CREATION_DATE  = 
ORIGINATOR     = 

OBJECT_NAME    = STARLINK-35708
OBJECT_ID      = 2025-247N
CENTER_NAME    = EARTH
REF_FRAME      = TEME
TIME_SYSTEM    = UTC
MEAN_ELEMENT_THEORY = SGP/SGP4

EPOCH          = 2025-11-30T02:12:27.020160
MEAN_MOTION    = 15.39629933
ECCENTRICITY   = .0001232
INCLINATION    = 53.1591
RA_OF_ASC_NODE = 296.9838
ARG_OF_PERICENTER = 104.0124
MEAN_ANOMALY   = 256.1018

EPHEMERIS_TYPE = 0
CLASSIFICATION_TYPE = U
NORAD_CAT_ID   = 66277
ELEMENT_SET_NO = 999
REV_AT_EPOCH   = 579
BSTAR          = .13746E-2
MEAN_MOTION_DOT = .54999E-3
MEAN_MOTION_DDOT = 0

CCSDS_OMM_VERS = 2.0
CREATION_DATE  = 
ORIGINATOR     = 

OBJECT_NAME    = STARLINK-35713
OBJECT_ID      = 2025-247P
CENTER_NAME    = EARTH
REF_FRAME      = TEME
TIME_SYSTEM    = UTC
MEAN_ELEMENT_THEORY = SGP/SGP4

EPOCH          = 2025-11-30T02:05:45.870144
MEAN_MOTION    = 15.39632439
ECCENTRICITY   = .0001284
INCLINATION    = 53.1595
RA_OF_ASC_NODE = 296.9537
ARG_OF_PERICENTER = 100.6627
MEAN_ANOMALY   = 259.4522

EPHEMERIS_TYPE = 0
CLASSIFICATION_TYPE = U
NORAD_CAT_ID   = 66278
ELEMENT_SET_NO = 999
REV_AT_EPOCH   = 579
BSTAR          = .15064E-2
MEAN_MOTION_DOT = .60357E-3
MEAN_MOTION_DDOT = 0

CCSDS_OMM_VERS = 2.0
CREATION_DATE  = 
ORIGINATOR     = 

OBJECT_NAME    = STARLINK-35724
OBJECT_ID      = 2025-247Q
CENTER_NAME    = EARTH
REF_FRAME      = TEME
TIME_SYSTEM    = UTC
MEAN_ELEMENT_THEORY = SGP/SGP4

EPOCH          = 2025-11-30T02:05:16.699776
MEAN_MOTION    = 15.39637695
ECCENTRICITY   = .0001214
INCLINATION    = 53.1598
RA_OF_ASC_NODE = 296.9522
ARG_OF_PERICENTER = 110.1532
MEAN_ANOMALY   = 249.9603

EPHEMERIS_TYPE = 0
CLASSIFICATION_TYPE = U
NORAD_CAT_ID   = 66279
ELEMENT_SET_NO = 999
REV_AT_EPOCH   = 574
BSTAR          = .15485E-2
MEAN_MOTION_DOT = .62082E-3
MEAN_MOTION_DDOT = 0

CCSDS_OMM_VERS = 2.0
CREATION_DATE  = 
ORIGINATOR     = 

OBJECT_NAME    = STARLINK-35726
OBJECT_ID      = 2025-247R
CENTER_NAME    = EARTH
REF_FRAME      = TEME
TIME_SYSTEM    = UTC
MEAN_ELEMENT_THEORY = SGP/SGP4

EPOCH          = 2025-11-30T02:11:57.899040
MEAN_MOTION    = 15.39634964
ECCENTRICITY   = .0001321
INCLINATION    = 53.1592
RA_OF_ASC_NODE = 296.9816
ARG_OF_PERICENTER = 107.7436
MEAN_ANOMALY   = 252.3713

EPHEMERIS_TYPE = 0
CLASSIFICATION_TYPE = U
NORAD_CAT_ID   = 66280
ELEMENT_SET_NO = 999
REV_AT_EPOCH   = 574
BSTAR          = .15516E-2
MEAN_MOTION_DOT = .62202E-3
MEAN_MOTION_DDOT = 0

CCSDS_OMM_VERS = 2.0
CREATION_DATE  = 
ORIGINATOR     = 

OBJECT_NAME    = STARLINK-35727
OBJECT_ID      = 2025-247S
CENTER_NAME    = EARTH
REF_FRAME      = TEME
TIME_SYSTEM    = UTC
MEAN_ELEMENT_THEORY = SGP/SGP4

EPOCH          = 2025-11-30T01:59:04.752960
MEAN_MOTION    = 15.39630781
ECCENTRICITY   = .0001704
INCLINATION    = 53.1593
RA_OF_ASC_NODE = 296.9246
ARG_OF_PERICENTER = 98.1441
MEAN_ANOMALY   = 261.9758

EPHEMERIS_TYPE = 0
CLASSIFICATION_TYPE = U
NORAD_CAT_ID   = 66281
ELEMENT_SET_NO = 999
REV_AT_EPOCH   = 574
BSTAR          = .1321E-2
MEAN_MOTION_DOT = .52827E-3
MEAN_MOTION_DDOT = 0

CCSDS_OMM_VERS = 2.0
CREATION_DATE  = 
ORIGINATOR     = 

OBJECT_NAME    = STARLINK-35776
OBJECT_ID      = 2025-247T
CENTER_NAME    = EARTH
REF_FRAME      = TEME
TIME_SYSTEM    = UTC
MEAN_ELEMENT_THEORY = SGP/SGP4

EPOCH          = 2025-11-30T01:58:35.732928
MEAN_MOTION    = 15.39632501
ECCENTRICITY   = .0001653
INCLINATION    = 53.1593
RA_OF_ASC_NODE = 296.9224
ARG_OF_PERICENTER = 97.2547
MEAN_ANOMALY   = 262.8646

EPHEMERIS_TYPE = 0
CLASSIFICATION_TYPE = U
NORAD_CAT_ID   = 66282
ELEMENT_SET_NO = 999
REV_AT_EPOCH   = 574
BSTAR          = .14488E-2
MEAN_MOTION_DOT = .58017E-3
MEAN_MOTION_DDOT = 0

CCSDS_OMM_VERS = 2.0
CREATION_DATE  = 
ORIGINATOR     = 

OBJECT_NAME    = STARLINK-35774
OBJECT_ID      = 2025-247U
CENTER_NAME    = EARTH
REF_FRAME      = TEME
TIME_SYSTEM    = UTC
MEAN_ELEMENT_THEORY = SGP/SGP4

EPOCH          = 2025-11-30T04:00:03.998880
MEAN_MOTION    = 15.39585102
ECCENTRICITY   = .0001154
INCLINATION    = 53.1589
RA_OF_ASC_NODE = 296.4781
ARG_OF_PERICENTER = 106.5185
MEAN_ANOMALY   = 25.3396

EPHEMERIS_TYPE = 0
CLASSIFICATION_TYPE = U
NORAD_CAT_ID   = 66283
ELEMENT_SET_NO = 999
REV_AT_EPOCH   = 559
BSTAR          = .59985E-3
MEAN_MOTION_DOT = .23641E-3
MEAN_MOTION_DDOT = 0

CCSDS_OMM_VERS = 2.0
CREATION_DATE  = 
ORIGINATOR     = 

OBJECT_NAME    = STARLINK-35830
OBJECT_ID      = 2025-247V
CENTER_NAME    = EARTH
REF_FRAME      = TEME
TIME_SYSTEM    = UTC
MEAN_ELEMENT_THEORY = SGP/SGP4

EPOCH          = 2025-11-30T04:00:03.998880
MEAN_MOTION    = 15.39582770
ECCENTRICITY   = .0001214
INCLINATION    = 53.1589
RA_OF_ASC_NODE = 296.4739
ARG_OF_PERICENTER = 109.2616
MEAN_ANOMALY   = 24.4713

EPHEMERIS_TYPE = 0
CLASSIFICATION_TYPE = U
NORAD_CAT_ID   = 66284
ELEMENT_SET_NO = 999
REV_AT_EPOCH   = 559
BSTAR          = .54646E-3
MEAN_MOTION_DOT = .21493E-3
MEAN_MOTION_DDOT = 0

CCSDS_OMM_VERS = 2.0
CREATION_DATE  = 
ORIGINATOR     = 

OBJECT_NAME    = STARLINK-35819
OBJECT_ID      = 2025-247W
CENTER_NAME    = EARTH
REF_FRAME      = TEME
TIME_SYSTEM    = UTC
MEAN_ELEMENT_THEORY = SGP/SGP4

EPOCH          = 2025-11-30T04:00:03.998880
MEAN_MOTION    = 15.39590977
ECCENTRICITY   = .0001316
INCLINATION    = 53.1586
RA_OF_ASC_NODE = 296.4262
ARG_OF_PERICENTER = 86.6538
MEAN_ANOMALY   = 70.9437

EPHEMERIS_TYPE = 0
CLASSIFICATION_TYPE = U
NORAD_CAT_ID   = 66285
ELEMENT_SET_NO = 999
REV_AT_EPOCH   = 554
BSTAR          = .8144E-3
MEAN_MOTION_DOT = .32283E-3
MEAN_MOTION_DDOT = 0

CCSDS_OMM_VERS = 2.0
CREATION_DATE  = 
ORIGINATOR     = 

OBJECT_NAME    = STARLINK-35783
OBJECT_ID      = 2025-247X
CENTER_NAME    = EARTH
REF_FRAME      = TEME
TIME_SYSTEM    = UTC
MEAN_ELEMENT_THEORY = SGP/SGP4

EPOCH          = 2025-11-30T04:00:03.998880
MEAN_MOTION    = 15.39588372
ECCENTRICITY   = .0001296
INCLINATION    = 53.1585
RA_OF_ASC_NODE = 296.4216
ARG_OF_PERICENTER = 76.8109
MEAN_ANOMALY   = 82.6664

EPHEMERIS_TYPE = 0
CLASSIFICATION_TYPE = U
NORAD_CAT_ID   = 66286
ELEMENT_SET_NO = 999
REV_AT_EPOCH   = 554
BSTAR          = .55512E-3
MEAN_MOTION_DOT = .21845E-3
MEAN_MOTION_DDOT = 0

CCSDS_OMM_VERS = 2.0
CREATION_DATE  = 
ORIGINATOR     = 

OBJECT_NAME    = STARLINK-34884
OBJECT_ID      = 2025-247Y
CENTER_NAME    = EARTH
REF_FRAME      = TEME
TIME_SYSTEM    = UTC
MEAN_ELEMENT_THEORY = SGP/SGP4

EPOCH          = 2025-11-30T04:00:03.998880
MEAN_MOTION    = 15.39585301
ECCENTRICITY   = .0001228
INCLINATION    = 53.1579
RA_OF_ASC_NODE = 296.3742
ARG_OF_PERICENTER = 80.6187
MEAN_ANOMALY   = 102.7361

EPHEMERIS_TYPE = 0
CLASSIFICATION_TYPE = U
NORAD_CAT_ID   = 66287
ELEMENT_SET_NO = 999
REV_AT_EPOCH   = 586
BSTAR          = .68264E-3
MEAN_MOTION_DOT = .26971E-3
MEAN_MOTION_DDOT = 0

CCSDS_OMM_VERS = 2.0
CREATION_DATE  = 
ORIGINATOR     = 

OBJECT_NAME    = STARLINK-34896
OBJECT_ID      = 2025-247Z
CENTER_NAME    = EARTH
REF_FRAME      = TEME
TIME_SYSTEM    = UTC
MEAN_ELEMENT_THEORY = SGP/SGP4

EPOCH          = 2025-11-30T04:00:03.998880
MEAN_MOTION    = 15.39582438
ECCENTRICITY   = .0001264
INCLINATION    = 53.1579
RA_OF_ASC_NODE = 296.3704
ARG_OF_PERICENTER = 77.4308
MEAN_ANOMALY   = 107.8136

EPHEMERIS_TYPE = 0
CLASSIFICATION_TYPE = U
NORAD_CAT_ID   = 66288
ELEMENT_SET_NO = 999
REV_AT_EPOCH   = 586
BSTAR          = .62327E-3
MEAN_MOTION_DOT = .2458E-3
MEAN_MOTION_DDOT = 0

